{
  "type": "FeatureCollection",
  "features": [
    {
      "type": "Feature",
      "properties": {
        "norad_id": 33835,
        "name": "COSMOS 2251 DEB",
        "group": "cosmos-2251-debris",
        "lat": 5.209287022469779,
        "lon": 90.23056001706085,
        "alt_km": 714.5814864407357,
        "timestamp": "2025-12-19T04:59:48.699519+00:00",
        "meta_object_name": "COSMOS 2251 DEB",
        "meta_object_id": "1993-036CC",
        "meta_epoch": "2025-12-18T18:11:26.319264",
        "meta_mean_motion": 14.62307996,
        "meta_eccentricity": 0.00541953,
        "meta_inclination": 74.0576,
        "meta_ra_of_asc_node": 89.5981,
        "meta_arg_of_pericenter": 141.4092,
        "meta_mean_anomaly": 15.2384,
        "meta_ephemeris_type": 0,
        "meta_classification_type": "U",
        "meta_norad_cat_id": 33835,
        "meta_element_set_no": 999,
        "meta_rev_at_epoch": 88877,
        "meta_bstar": 0.00070685378,
        "meta_mean_motion_dot": 3.615e-05,
        "meta_mean_motion_ddot": 0,
        "tle_line1": "1 33835U 93036CC  25352.75794351  .00003615  00000+0  70685-3 0  9994",
        "tle_line2": "2 33835  74.0576  89.5981 0054195 141.4092  15.2384 14.62307996888776"
      },
      "geometry": {
        "type": "Point",
        "coordinates": [
          90.23056001706085,
          5.209287022469779
        ]
      }
    },
    {
      "type": "Feature",
      "properties": {
        "norad_id": 33836,
        "name": "COSMOS 2251 DEB",
        "group": "cosmos-2251-debris",
        "lat": 67.74186803916326,
        "lon": -69.28961847493245,
        "alt_km": 608.54021067556,
        "timestamp": "2025-12-19T04:59:48.699530+00:00",
        "meta_object_name": "COSMOS 2251 DEB",
        "meta_object_id": "1993-036CD",
        "meta_epoch": "2025-12-18T19:12:53.959392",
        "meta_mean_motion": 14.79722686,
        "meta_eccentricity": 0.00226963,
        "meta_inclination": 73.9973,
        "meta_ra_of_asc_node": 246.9901,
        "meta_arg_of_pericenter": 97.8562,
        "meta_mean_anomaly": 326.3383,
        "meta_ephemeris_type": 0,
        "meta_classification_type": "U",
        "meta_norad_cat_id": 33836,
        "meta_element_set_no": 999,
        "meta_rev_at_epoch": 64178,
        "meta_bstar": 0.00088643672,
        "meta_mean_motion_dot": 6.663e-05,
        "meta_mean_motion_ddot": 0,
        "tle_line1": "1 33836U 93036CD  25352.80062453  .00006663  00000+0  88644-3 0  9992",
        "tle_line2": "2 33836  73.9973 246.9901 0022696  97.8562 326.3383 14.79722686641782"
      },
      "geometry": {
        "type": "Point",
        "coordinates": [
          -69.28961847493245,
          67.74186803916326
        ]
      }
    },
    {
      "type": "Feature",
      "properties": {
        "norad_id": 33837,
        "name": "COSMOS 2251 DEB",
        "group": "cosmos-2251-debris",
        "lat": 71.55981603191371,
        "lon": 164.12432913697526,
        "alt_km": 740.6637047656513,
        "timestamp": "2025-12-19T04:59:48.699540+00:00",
        "meta_object_name": "COSMOS 2251 DEB",
        "meta_object_id": "1993-036CE",
        "meta_epoch": "2025-12-18T13:38:35.943648",
        "meta_mean_motion": 14.50713474,
        "meta_eccentricity": 0.00359097,
        "meta_inclination": 74.0127,
        "meta_ra_of_asc_node": 44.6244,
        "meta_arg_of_pericenter": 265.4134,
        "meta_mean_anomaly": 94.2924,
        "meta_ephemeris_type": 0,
        "meta_classification_type": "U",
        "meta_norad_cat_id": 33837,
        "meta_element_set_no": 999,
        "meta_rev_at_epoch": 88880,
        "meta_bstar": 0.00019377194,
        "meta_mean_motion_dot": 7.39e-06,
        "meta_mean_motion_ddot": 0,
        "tle_line1": "1 33837U 93036CE  25352.56847157  .00000739  00000+0  19377-3 0  9993",
        "tle_line2": "2 33837  74.0127  44.6244 0035909 265.4134  94.2924 14.50713474888800"
      },
      "geometry": {
        "type": "Point",
        "coordinates": [
          164.12432913697526,
          71.55981603191371
        ]
      }
    },
    {
      "type": "Feature",
      "properties": {
        "norad_id": 33838,
        "name": "COSMOS 2251 DEB",
        "group": "cosmos-2251-debris",
        "lat": -72.34592812885056,
        "lon": 73.61651733777167,
        "alt_km": 719.3919113750999,
        "timestamp": "2025-12-19T04:59:48.699550+00:00",
        "meta_object_name": "COSMOS 2251 DEB",
        "meta_object_id": "1993-036CF",
        "meta_epoch": "2025-12-18T20:00:12.340224",
        "meta_mean_motion": 14.48380976,
        "meta_eccentricity": 0.00275019,
        "meta_inclination": 74.0361,
        "meta_ra_of_asc_node": 138.4014,
        "meta_arg_of_pericenter": 259.447,
        "meta_mean_anomaly": 224.9911,
        "meta_ephemeris_type": 0,
        "meta_classification_type": "U",
        "meta_norad_cat_id": 33838,
        "meta_element_set_no": 999,
        "meta_rev_at_epoch": 88657,
        "meta_bstar": 0.00031263295,
        "meta_mean_motion_dot": 1.148e-05,
        "meta_mean_motion_ddot": 0,
        "tle_line1": "1 33838U 93036CF  25352.83347616  .00001148  00000+0  31263-3 0  9992",
        "tle_line2": "2 33838  74.0361 138.4014 0027501 259.4470 224.9911 14.48380976886577"
      },
      "geometry": {
        "type": "Point",
        "coordinates": [
          73.61651733777167,
          -72.34592812885056
        ]
      }
    },
    {
      "type": "Feature",
      "properties": {
        "norad_id": 33839,
        "name": "COSMOS 2251 DEB",
        "group": "cosmos-2251-debris",
        "lat": -35.02326735558596,
        "lon": 25.62226932834932,
        "alt_km": 682.2670291104814,
        "timestamp": "2025-12-19T04:59:48.699560+00:00",
        "meta_object_name": "COSMOS 2251 DEB",
        "meta_object_id": "1993-036CG",
        "meta_epoch": "2025-12-18T21:58:16.427424",
        "meta_mean_motion": 14.64435067,
        "meta_eccentricity": 0.00852706,
        "meta_inclination": 74.0377,
        "meta_ra_of_asc_node": 194.6132,
        "meta_arg_of_pericenter": 305.2636,
        "meta_mean_anomaly": 169.6153,
        "meta_ephemeris_type": 0,
        "meta_classification_type": "U",
        "meta_norad_cat_id": 33839,
        "meta_element_set_no": 999,
        "meta_rev_at_epoch": 89670,
        "meta_bstar": 0.00015915017,
        "meta_mean_motion_dot": 8.53e-06,
        "meta_mean_motion_ddot": 0,
        "tle_line1": "1 33839U 93036CG  25352.91546791  .00000853  00000+0  15915-3 0  9995",
        "tle_line2": "2 33839  74.0377 194.6132 0085270 305.2636 169.6153 14.64435067896700"
      },
      "geometry": {
        "type": "Point",
        "coordinates": [
          25.62226932834932,
          -35.02326735558596
        ]
      }
    },
    {
      "type": "Feature",
      "properties": {
        "norad_id": 33841,
        "name": "COSMOS 2251 DEB",
        "group": "cosmos-2251-debris",
        "lat": 47.72893538780275,
        "lon": -75.51440126255919,
        "alt_km": 754.6435534517805,
        "timestamp": "2025-12-19T04:59:48.699570+00:00",
        "meta_object_name": "COSMOS 2251 DEB",
        "meta_object_id": "1993-036CJ",
        "meta_epoch": "2025-12-18T20:43:25.829760",
        "meta_mean_motion": 14.37869287,
        "meta_eccentricity": 0.00207975,
        "meta_inclination": 74.0378,
        "meta_ra_of_asc_node": 266.7672,
        "meta_arg_of_pericenter": 346.0697,
        "meta_mean_anomaly": 80.4985,
        "meta_ephemeris_type": 0,
        "meta_classification_type": "U",
        "meta_norad_cat_id": 33841,
        "meta_element_set_no": 999,
        "meta_rev_at_epoch": 88202,
        "meta_bstar": 0.00017361125,
        "meta_mean_motion_dot": 4.99e-06,
        "meta_mean_motion_ddot": 0,
        "tle_line1": "1 33841U 93036CJ  25352.86349340  .00000499  00000+0  17361-3 0  9996",
        "tle_line2": "2 33841  74.0378 266.7672 0020797 346.0697  80.4985 14.37869287882025"
      },
      "geometry": {
        "type": "Point",
        "coordinates": [
          -75.51440126255919,
          47.72893538780275
        ]
      }
    },
    {
      "type": "Feature",
      "properties": {
        "norad_id": 33842,
        "name": "COSMOS 2251 DEB",
        "group": "cosmos-2251-debris",
        "lat": 54.572087220424834,
        "lon": -128.62066746837976,
        "alt_km": 752.2700842042377,
        "timestamp": "2025-12-19T04:59:48.699581+00:00",
        "meta_object_name": "COSMOS 2251 DEB",
        "meta_object_id": "1993-036CK",
        "meta_epoch": "2025-12-18T13:45:07.240608",
        "meta_mean_motion": 14.42708642,
        "meta_eccentricity": 0.0047445,
        "meta_inclination": 74.0321,
        "meta_ra_of_asc_node": 208.8245,
        "meta_arg_of_pericenter": 314.9859,
        "meta_mean_anomaly": 44.7456,
        "meta_ephemeris_type": 0,
        "meta_classification_type": "U",
        "meta_norad_cat_id": 33842,
        "meta_element_set_no": 999,
        "meta_rev_at_epoch": 88421,
        "meta_bstar": 0.00021412852,
        "meta_mean_motion_dot": 6.95e-06,
        "meta_mean_motion_ddot": 0,
        "tle_line1": "1 33842U 93036CK  25352.57300047  .00000695  00000+0  21413-3 0  9997",
        "tle_line2": "2 33842  74.0321 208.8245 0047445 314.9859  44.7456 14.42708642884212"
      },
      "geometry": {
        "type": "Point",
        "coordinates": [
          -128.62066746837976,
          54.572087220424834
        ]
      }
    }
  ]
}